{
    "satellites": [
        {
            "name": "starlink354",
            "title": "Starlink-354 (G10-36) (new)",
            "tle": [
                "1 71740C 26034L   26053.10812500 -.00663320  00000+0 -10954-2 0   530",
                "2 71740  53.1538 290.0661 0000422  80.0312 295.8124 16.03037324    13"
            ],
            "stdMag": 5,
            "noradId": "71740",
            "tleUrl": "http://celestrak.org/NORAD/elements/supplemental/sup-gp.php?FILE=starlink&FORMAT=tle",
            "launchDate": "2026-02-20T01:41:40.000Z",
            "active": true,
            "batch": [
                {
                    "noradId": "71740",
                    "tle": [
                        "1 71740C 26034L   26053.10812500 -.00663320  00000+0 -10954-2 0   530",
                        "2 71740  53.1538 290.0661 0000422  80.0312 295.8124 16.03037324    13"
                    ]
                },
                {
                    "noradId": "71739",
                    "tle": [
                        "1 71739C 26034K   26053.11090278 -.00665530  00000+0 -11044-2 0   535",
                        "2 71739  53.1538 290.0519 0000523  77.9968 313.7407 16.02957100    13"
                    ]
                },
                {
                    "noradId": "71738",
                    "tle": [
                        "1 71738C 26034J   26053.11090278 -.00705550  00000+0 -11765-2 0   531",
                        "2 71738  53.1538 290.0523 0000566  79.5060 312.1031 16.02914564    18"
                    ]
                },
                {
                    "noradId": "71737",
                    "tle": [
                        "1 71737C 26034H   26053.11090278 -.00754900  00000+0 -12710-2 0   534",
                        "2 71737  53.1539 290.0529 0000818  81.7019 309.6449 16.02799843    18"
                    ]
                },
                {
                    "noradId": "71736",
                    "tle": [
                        "1 71736C 26034G   26053.11090278 -.00721090  00000+0 -12082-2 0   539",
                        "2 71736  53.1539 290.0525 0000769  80.1348 311.3374 16.02849423    13"
                    ]
                },
                {
                    "noradId": "71735",
                    "tle": [
                        "1 71735C 26034F   26053.11090278 -.00794670  00000+0 -13447-2 0   538",
                        "2 71735  53.1539 290.0531 0000967  83.9328 307.2946 16.02754879    17"
                    ]
                },
                {
                    "noradId": "71734",
                    "tle": [
                        "1 71734C 26034E   26053.10743056 -.00823170  00000+0 -13990-2 0   536",
                        "2 71734  53.1538 290.0713 0000426  75.3267 295.7071 16.02710623    13"
                    ]
                },
                {
                    "noradId": "71733",
                    "tle": [
                        "1 71733C 26034D   26053.10743056 -.00862370  00000+0 -14724-2 0   536",
                        "2 71733  53.1539 290.0715 0000438  71.5318 299.3597 16.02671612    10"
                    ]
                },
                {
                    "noradId": "71732",
                    "tle": [
                        "1 71732C 26034C   26053.10743056 -.00869560  00000+0 -14916-2 0   536",
                        "2 71732  53.1539 290.0719 0000562  71.6575 299.0888 16.02600053    18"
                    ]
                },
                {
                    "noradId": "71731",
                    "tle": [
                        "1 71731C 26034B   26053.10743056 -.00893110  00000+0 -15393-2 0   533",
                        "2 71731  53.1539 290.0722 0000656  70.1764 300.4399 16.02541758    19"
                    ]
                },
                {
                    "noradId": "71730",
                    "tle": [
                        "1 71730C 26034A   26053.10743056 -.00932120  00000+0 -16139-2 0   536",
                        "2 71730  53.1541 290.0726 0000584  70.3255 300.1426 16.02504249    14"
                    ]
                }
            ]
        }
    ],
    "config": {}
}